{
  "type": "FeatureCollection",
  "features": [
{ "type": "Feature", "properties": 
{ "cca": "046", "cde": "06364", "fna": "Partido de General Rodríguez", "gna": "Partido", "nam": "General Rodríguez", "sag": "ARBA", "ara3": 365.4, "arl": 360.14 }, 
"geometry": { "type": "MultiPolygon", "coordinates": 
[ [ [ [ -58.88, -34.63 ], [ -58.88, -34.63 ], [ -58.88, -34.63 ], [ -58.88, -34.63 ], 
[ -58.88, -34.63 ], [ -58.88, -34.63 ], [ -58.88, -34.63 ], [ -58.88, -34.63 ], 
[ -58.88, -34.64 ], [ -58.88, -34.64 ], [ -58.88, -34.64 ], [ -58.88, -34.64 ], 
[ -58.88, -34.64 ], [ -58.88, -34.64 ], [ -58.88, -34.64 ], [ -58.88, -34.64 ], 
[ -58.88, -34.64 ], [ -58.88, -34.64 ], [ -58.88, -34.64 ], [ -58.88, -34.64 ], 
[ -58.88, -34.64 ], [ -58.88, -34.64 ], [ -58.88, -34.64 ], [ -58.88, -34.64 ], 
[ -58.88, -34.64 ], [ -58.88, -34.64 ], [ -58.88, -34.64 ], [ -58.88, -34.64 ], 
[ -58.88, -34.64 ], [ -58.88, -34.64 ], [ -58.88, -34.64 ], [ -58.88, -34.64 ], 
[ -58.88, -34.64 ], [ -58.88, -34.65 ], [ -58.88, -34.65 ], [ -58.88, -34.65 ], 
[ -58.88, -34.65 ], [ -58.88, -34.65 ], [ -58.88, -34.65 ], [ -58.88, -34.65 ], 
[ -58.88, -34.65 ], [ -58.88, -34.65 ], [ -58.88, -34.65 ], [ -58.88, -34.65 ], 
[ -58.88, -34.65 ], [ -58.88, -34.65 ], [ -58.88, -34.65 ], [ -58.88, -34.65 ], 
[ -58.88, -34.65 ], [ -58.88, -34.65 ], [ -58.88, -34.65 ], [ -58.88, -34.65 ], 
[ -58.88, -34.65 ], [ -58.88, -34.65 ], [ -58.88, -34.65 ], [ -58.88, -34.65 ], 
[ -58.88, -34.65 ], [ -58.88, -34.65 ], [ -58.88, -34.65 ], [ -58.88, -34.65 ], 
[ -58.88, -34.65 ], [ -58.88, -34.65 ], [ -58.88, -34.65 ], [ -58.88, -34.65 ], 
[ -58.88, -34.65 ], [ -58.88, -34.65 ], [ -58.88, -34.65 ], [ -58.88, -34.65 ], 
[ -58.88, -34.65 ], [ -58.88, -34.65 ], [ -58.88, -34.65 ], [ -58.88, -34.65 ], 
[ -58.88, -34.65 ], [ -58.88, -34.65 ], [ -58.88, -34.65 ], [ -58.88, -34.65 ], 
[ -58.88, -34.65 ], [ -58.88, -34.65 ], [ -58.88, -34.65 ], [ -58.88, -34.65 ], 
[ -58.88, -34.65 ], [ -58.88, -34.65 ], [ -58.88, -34.66 ], [ -58.88, -34.66 ], 
[ -58.88, -34.66 ], [ -58.88, -34.66 ], [ -58.88, -34.66 ], [ -58.88, -34.66 ], 
[ -58.88, -34.66 ], [ -58.88, -34.66 ], [ -58.88, -34.66 ], [ -58.88, -34.66 ], 
[ -58.88, -34.66 ], [ -58.88, -34.66 ], [ -58.88, -34.66 ], [ -58.88, -34.66 ], 
[ -58.88, -34.66 ], [ -58.88, -34.66 ], [ -58.88, -34.66 ], [ -58.88, -34.66 ], 
[ -58.88, -34.66 ], [ -58.88, -34.66 ], [ -58.88, -34.66 ], [ -58.88, -34.66 ], 
[ -58.88, -34.66 ], [ -58.88, -34.66 ], [ -58.88, -34.66 ], [ -58.88, -34.66 ], 
[ -58.88, -34.66 ], [ -58.88, -34.66 ], [ -58.88, -34.66 ], [ -58.88, -34.66 ], 
[ -58.88, -34.66 ], [ -58.88, -34.66 ], [ -58.88, -34.66 ], [ -58.88, -34.66 ], 
[ -58.88, -34.66 ], [ -58.88, -34.66 ], [ -58.88, -34.66 ], [ -58.88, -34.66 ], 
[ -58.88, -34.66 ], [ -58.88, -34.66 ], [ -58.88, -34.66 ], [ -58.88, -34.66 ], 
[ -58.88, -34.66 ], [ -58.88, -34.66 ], [ -58.88, -34.66 ], [ -58.88, -34.66 ], 
[ -58.88, -34.66 ], [ -58.88, -34.66 ], [ -58.88, -34.66 ], [ -58.88, -34.66 ], 
[ -58.88, -34.66 ], [ -58.88, -34.66 ], [ -58.88, -34.66 ], [ -58.88, -34.66 ], 
[ -58.88, -34.66 ], [ -58.88, -34.67 ], [ -58.88, -34.67 ], [ -58.88, -34.67 ], 
[ -58.88, -34.67 ], [ -58.88, -34.67 ], [ -58.88, -34.67 ], [ -58.88, -34.67 ], 
[ -58.88, -34.67 ], [ -58.88, -34.67 ], [ -58.88, -34.67 ], [ -58.88, -34.67 ], 
[ -58.88, -34.67 ], [ -58.88, -34.67 ], [ -58.88, -34.67 ], [ -58.88, -34.67 ], 
[ -58.88, -34.67 ], [ -58.88, -34.67 ], [ -58.88, -34.67 ], [ -58.88, -34.67 ],
[ -58.87, -34.68 ], [ -58.87, -34.68 ], [ -58.87, -34.68 ], [ -58.87, -34.68 ], 
[ -58.87, -34.68 ], [ -58.87, -34.68 ], [ -58.86, -34.68 ], [ -58.86, -34.68 ], 
[ -58.87, -34.68 ], [ -58.87, -34.69 ], [ -58.87, -34.69 ], [ -58.87, -34.69 ], 
[ -58.87, -34.69 ], [ -58.87, -34.69 ], [ -58.87, -34.69 ], [ -58.87, -34.69 ], 
[ -58.87, -34.69 ], [ -58.87, -34.69 ], [ -58.87, -34.69 ], [ -58.87, -34.69 ], 
[ -58.87, -34.69 ], [ -58.87, -34.69 ], [ -58.87, -34.69 ], [ -58.87, -34.69 ], 
[ -58.87, -34.69 ], [ -58.87, -34.69 ], [ -58.87, -34.69 ], [ -58.87, -34.69 ], 
[ -58.87, -34.69 ], [ -58.87, -34.69 ], [ -58.88, -34.69 ], [ -58.88, -34.69 ], 
[ -58.88, -34.69 ], [ -58.88, -34.69 ], [ -58.88, -34.69 ], [ -58.88, -34.69 ], 
[ -58.88, -34.69 ], [ -58.88, -34.69 ], [ -58.88, -34.69 ], [ -58.88, -34.69 ], 
[ -58.88, -34.69 ], [ -58.88, -34.69 ], [ -58.88, -34.69 ], [ -58.88, -34.69 ], 
[ -58.88, -34.69 ], [ -58.88, -34.69 ], [ -58.88, -34.69 ], [ -58.88, -34.69 ],
[ -58.88, -34.69 ], [ -58.88, -34.69 ], [ -58.88, -34.69 ], [ -58.89, -34.69 ], 
[ -58.89, -34.7 ], [ -58.89, -34.7 ], [ -58.89, -34.7 ], [ -58.89, -34.7 ], 
[ -58.89, -34.7 ], [ -58.89, -34.7 ], [ -58.89, -34.7 ], [ -58.89, -34.7 ], 
[ -58.89, -34.7 ], [ -58.89, -34.7 ], [ -58.89, -34.7 ], [ -58.89, -34.7 ], 
[ -58.89, -34.7 ], [ -58.89, -34.7 ], [ -58.89, -34.7 ], [ -58.89, -34.7 ], 
[ -58.89, -34.7 ], [ -58.89, -34.7 ], [ -58.89, -34.7 ], [ -58.89, -34.7 ],
[ -58.89, -34.7 ], [ -58.89, -34.7 ], [ -58.9, -34.7 ], [ -58.9, -34.7 ], 
[ -58.9, -34.7 ], [ -58.9, -34.7 ], [ -58.9, -34.7 ], [ -58.9, -34.7 ], 
[ -58.9, -34.7 ], [ -58.9, -34.7 ], [ -58.9, -34.7 ], [ -58.9, -34.7 ], 
[ -58.9, -34.7 ], [ -58.9, -34.7 ], [ -58.9, -34.7 ], [ -58.9, -34.7 ], 
[ -58.9, -34.7 ], [ -58.9, -34.7 ], [ -58.9, -34.7 ], [ -58.9, -34.7 ], 
[ -58.9, -34.7 ], [ -58.9, -34.7 ], [ -58.9, -34.7 ], [ -58.9, -34.7 ], 
[ -58.9, -34.7 ], [ -58.9, -34.7 ], [ -58.9, -34.7 ], [ -58.9, -34.7 ], 
[ -58.9, -34.7 ], [ -58.9, -34.7 ], [ -58.9, -34.7 ], [ -58.9, -34.7 ], 
[ -58.9, -34.7 ], [ -58.91, -34.7 ], [ -58.91, -34.7 ], [ -58.91, -34.7 ], 
[ -58.91, -34.7 ], [ -58.91, -34.7 ], [ -58.91, -34.7 ], [ -58.91, -34.7 ], 
[ -58.91, -34.7 ], [ -58.91, -34.7 ], [ -58.91, -34.7 ], [ -58.91, -34.7 ], 
[ -58.91, -34.7 ], [ -58.91, -34.7 ], [ -58.91, -34.7 ], [ -58.91, -34.7 ], 
[ -58.91, -34.7 ], [ -58.91, -34.7 ], [ -58.91, -34.7 ], [ -58.91, -34.7 ], 
[ -58.91, -34.7 ], [ -58.91, -34.7 ], [ -58.91, -34.7 ], [ -58.91, -34.7 ], 
[ -58.91, -34.7 ], [ -58.91, -34.7 ], [ -58.91, -34.7 ], [ -58.91, -34.7 ], 
[ -58.91, -34.7 ], [ -58.91, -34.7 ], [ -58.91, -34.7 ], [ -58.91, -34.7 ],
[ -58.91, -34.7 ], [ -58.91, -34.7 ], [ -58.91, -34.7 ], [ -58.91, -34.7 ], 
[ -58.91, -34.7 ], [ -58.91, -34.7 ], [ -58.91, -34.7 ], [ -58.91, -34.7 ],
[ -58.91, -34.7 ], [ -58.91, -34.7 ], [ -58.91, -34.7 ], [ -58.91, -34.7 ], 
[ -58.91, -34.7 ], [ -58.91, -34.7 ], [ -58.91, -34.7 ], [ -58.91, -34.7 ], 
[ -58.91, -34.7 ], [ -58.91, -34.7 ], [ -58.91, -34.7 ], [ -58.91, -34.7 ],
[ -58.91, -34.7 ], [ -58.91, -34.7 ], [ -58.91, -34.7 ], [ -58.92, -34.7 ], 
[ -58.92, -34.7 ], [ -58.92, -34.7 ], [ -58.92, -34.7 ], [ -58.92, -34.7 ], 
[ -58.92, -34.7 ], [ -58.92, -34.7 ], [ -58.92, -34.7 ], [ -58.92, -34.7 ],
[ -58.92, -34.7 ], [ -58.92, -34.7 ], [ -58.92, -34.7 ], [ -58.92, -34.7 ], 
[ -58.92, -34.7 ], [ -58.92, -34.7 ], [ -58.92, -34.7 ], [ -58.92, -34.7 ], 
[ -58.92, -34.7 ], [ -58.92, -34.7 ], [ -58.92, -34.7 ], [ -58.92, -34.7 ], 
[ -58.92, -34.7 ], [ -58.92, -34.7 ], [ -58.92, -34.7 ], [ -58.92, -34.7 ], 
[ -58.92, -34.7 ], [ -58.92, -34.7 ], [ -58.92, -34.7 ], [ -58.92, -34.7 ], 
[ -58.92, -34.7 ], [ -58.92, -34.7 ], [ -58.93, -34.7 ], [ -58.93, -34.7 ],
[ -58.93, -34.7 ], [ -58.93, -34.7 ], [ -58.93, -34.7 ], [ -58.93, -34.7 ], 
[ -58.93, -34.7 ], [ -58.93, -34.7 ], [ -58.93, -34.7 ], [ -58.93, -34.7 ], 
[ -58.93, -34.7 ], [ -58.93, -34.7 ], [ -58.93, -34.7 ], [ -58.93, -34.7 ], 
[ -58.93, -34.7 ], [ -58.93, -34.7 ], [ -58.93, -34.7 ], [ -58.93, -34.7 ],
[ -58.93, -34.7 ], [ -58.93, -34.7 ], [ -58.93, -34.7 ], [ -58.93, -34.7 ], 
[ -58.93, -34.7 ], [ -58.93, -34.7 ], [ -58.93, -34.7 ], [ -58.93, -34.7 ], 
[ -58.94, -34.7 ], [ -58.94, -34.7 ], [ -58.94, -34.7 ], [ -58.94, -34.7 ], 
[ -58.94, -34.7 ], [ -58.94, -34.7 ], [ -58.94, -34.7 ], [ -58.94, -34.7 ], 
[ -58.94, -34.7 ], [ -58.94, -34.7 ], [ -58.94, -34.7 ], [ -58.94, -34.7 ], 
[ -58.94, -34.7 ], [ -58.94, -34.7 ], [ -58.94, -34.7 ], [ -58.94, -34.71 ], 
[ -58.94, -34.71 ], [ -58.94, -34.71 ], [ -58.94, -34.71 ], [ -58.94, -34.71 ], 
[ -58.94, -34.71 ], [ -58.94, -34.71 ], [ -58.94, -34.71 ], [ -58.94, -34.71 ], 
[ -58.94, -34.71 ], [ -58.94, -34.71 ], [ -58.94, -34.71 ], [ -58.94, -34.71 ], 
[ -58.94, -34.71 ], [ -58.94, -34.71 ], [ -58.94, -34.71 ], [ -58.94, -34.71 ], 
[ -58.94, -34.71 ], [ -58.94, -34.71 ], [ -58.94, -34.71 ], [ -58.94, -34.71 ], 
[ -58.94, -34.71 ], [ -58.94, -34.71 ], [ -58.94, -34.71 ], [ -58.94, -34.71 ],
[ -58.94, -34.71 ], [ -58.94, -34.71 ], [ -58.94, -34.71 ], [ -58.94, -34.71 ], 
[ -58.94, -34.71 ], [ -58.94, -34.71 ], [ -58.94, -34.71 ], [ -58.94, -34.71 ], 
[ -58.94, -34.71 ], [ -58.94, -34.71 ], [ -58.94, -34.71 ], [ -58.94, -34.71 ], 
[ -58.94, -34.71 ], [ -58.94, -34.71 ], [ -58.94, -34.71 ], [ -58.94, -34.71 ], 
[ -58.94, -34.71 ], [ -58.94, -34.71 ], [ -58.94, -34.71 ], [ -58.94, -34.71 ], 
[ -58.94, -34.71 ], [ -58.94, -34.71 ], [ -58.94, -34.71 ], [ -58.94, -34.71 ], 
[ -58.94, -34.71 ], [ -58.94, -34.71 ], [ -58.94, -34.71 ], [ -58.94, -34.71 ], 
[ -58.94, -34.71 ], [ -58.94, -34.71 ], [ -58.94, -34.71 ], [ -58.94, -34.71 ], 
[ -58.94, -34.71 ], [ -58.94, -34.71 ], [ -58.94, -34.71 ], [ -58.94, -34.71 ], 
[ -58.94, -34.71 ], [ -58.94, -34.71 ], [ -58.94, -34.71 ], [ -58.94, -34.71 ], 
[ -58.94, -34.71 ], [ -58.94, -34.71 ], [ -58.94, -34.71 ], [ -58.94, -34.71 ], 
[ -58.94, -34.71 ], [ -58.94, -34.71 ], [ -58.94, -34.71 ], [ -58.94, -34.71 ], 
[ -58.94, -34.71 ], [ -58.94, -34.71 ], [ -58.94, -34.71 ], [ -58.94, -34.71 ], 
[ -58.94, -34.71 ], [ -58.94, -34.71 ], [ -58.94, -34.71 ], [ -58.94, -34.71 ], 
[ -58.94, -34.71 ], [ -58.94, -34.71 ], [ -58.94, -34.71 ], [ -58.94, -34.71 ], 
[ -58.94, -34.71 ], [ -58.94, -34.71 ], [ -58.94, -34.71 ], [ -58.94, -34.71 ],
[ -58.94, -34.71 ], [ -58.94, -34.71 ], [ -58.94, -34.71 ], [ -58.94, -34.71 ], 
[ -58.94, -34.71 ], [ -58.94, -34.71 ], [ -58.94, -34.71 ], [ -58.94, -34.71 ], 
[ -58.94, -34.71 ], [ -58.94, -34.71 ], [ -58.94, -34.71 ], [ -58.94, -34.71 ], 
[ -58.94, -34.71 ], [ -58.94, -34.71 ], [ -58.94, -34.71 ], [ -58.94, -34.71 ], 
[ -58.94, -34.71 ], [ -58.94, -34.71 ], [ -58.94, -34.71 ], [ -58.94, -34.71 ],
[ -58.95, -34.71 ], [ -58.95, -34.71 ], [ -58.95, -34.71 ], [ -58.95, -34.71 ], 
[ -58.95, -34.71 ], [ -58.95, -34.71 ], [ -58.95, -34.71 ], [ -58.95, -34.71 ], 
[ -58.95, -34.71 ], [ -58.95, -34.71 ], [ -58.95, -34.71 ], [ -58.95, -34.71 ], 
[ -58.95, -34.71 ], [ -58.95, -34.71 ], [ -58.95, -34.71 ], [ -58.95, -34.71 ], 
[ -58.95, -34.71 ], [ -58.95, -34.71 ], [ -58.95, -34.72 ], [ -58.95, -34.72 ], 
[ -58.95, -34.72 ], [ -58.95, -34.72 ], [ -58.95, -34.72 ], [ -58.95, -34.72 ], 
[ -58.95, -34.72 ], [ -58.96, -34.72 ], [ -58.96, -34.72 ], [ -58.96, -34.72 ], 
[ -58.95, -34.72 ], [ -58.96, -34.72 ], [ -58.96, -34.72 ], [ -58.96, -34.72 ], 
[ -58.96, -34.72 ], [ -58.96, -34.72 ], [ -58.96, -34.72 ], [ -58.96, -34.72 ], 
[ -58.96, -34.72 ], [ -58.96, -34.72 ], [ -58.96, -34.72 ], [ -58.96, -34.72 ], 
[ -58.96, -34.73 ], [ -58.96, -34.73 ], [ -58.96, -34.73 ], [ -58.96, -34.73 ], 
[ -58.96, -34.73 ], [ -58.96, -34.73 ], [ -58.96, -34.73 ], [ -58.96, -34.73 ], 
[ -58.96, -34.73 ], [ -58.96, -34.73 ], [ -58.96, -34.73 ], [ -58.96, -34.73 ],
[ -58.96, -34.73 ], [ -58.96, -34.73 ], [ -58.96, -34.73 ], [ -58.96, -34.73 ], 
[ -58.96, -34.73 ], [ -58.96, -34.73 ], [ -58.96, -34.73 ], [ -58.96, -34.73 ], 
[ -58.96, -34.73 ], [ -58.96, -34.73 ], [ -58.96, -34.73 ], [ -58.96, -34.73 ], 
[ -58.96, -34.73 ], [ -58.96, -34.73 ], [ -58.96, -34.73 ], [ -58.96, -34.73 ], 
[ -58.96, -34.73 ], [ -58.96, -34.74 ], [ -58.96, -34.74 ], [ -58.96, -34.74 ], 
[ -58.97, -34.74 ], [ -58.97, -34.74 ], [ -58.97, -34.74 ], [ -58.97, -34.74 ], 
[ -58.97, -34.74 ], [ -58.97, -34.74 ], [ -58.97, -34.74 ], [ -58.97, -34.74 ], 
[ -58.97, -34.74 ], [ -58.97, -34.74 ], [ -58.97, -34.74 ], [ -58.97, -34.74 ], 
[ -58.97, -34.74 ], [ -58.97, -34.74 ], [ -58.97, -34.74 ], [ -58.97, -34.74 ], 
[ -58.97, -34.74 ], [ -58.97, -34.74 ], [ -58.97, -34.74 ], [ -58.97, -34.74 ], 
[ -58.97, -34.74 ], [ -58.97, -34.74 ], [ -58.97, -34.74 ], [ -58.97, -34.74 ], 
[ -58.97, -34.74 ], [ -58.97, -34.74 ], [ -58.97, -34.74 ], [ -58.97, -34.74 ], 
[-58.97, -34.74 ], [ -58.97, -34.74 ], [ -58.97, -34.74 ], [ -58.98, -34.74 ], 
[ -58.98, -34.74 ], [ -58.98, -34.74 ], [ -58.98, -34.74 ], [ -58.98, -34.75 ], 
[ -58.98, -34.75 ], [ -58.98, -34.75 ], [ -58.98, -34.75 ], [ -58.98, -34.75 ], 
[ -58.98, -34.75 ], [ -58.98, -34.75 ], [ -58.98, -34.75 ], [ -58.98, -34.75 ], 
[ -58.98, -34.75 ], [ -58.98, -34.75 ], [ -58.98, -34.75 ], [ -58.98, -34.75 ], 
[ -58.98, -34.75 ], [ -58.98, -34.75 ], [ -58.98, -34.75 ], [ -58.98, -34.75 ], 
[ -58.98, -34.75 ], [ -58.98, -34.75 ], [ -58.98, -34.75 ], [ -58.98, -34.75 ], 
[ -58.98, -34.75 ], [ -58.98, -34.75 ], [ -58.99, -34.75 ], [ -58.99, -34.75 ], 
[ -58.99, -34.75 ], [ -58.99, -34.75 ], [ -58.99, -34.75 ], [ -58.99, -34.75 ], 
[ -58.99, -34.75 ], [ -58.99, -34.75 ], [ -58.99, -34.75 ], [ -58.99, -34.75 ], 
[ -58.99, -34.75 ], [ -58.99, -34.76 ], [ -58.99, -34.76 ], [ -58.99, -34.76 ], 
[ -58.99, -34.76 ], [ -58.99, -34.76 ], [ -58.99, -34.76 ], [ -58.99, -34.76 ],
[ -59.0, -34.76 ], [ -59.0, -34.76 ], [ -59.0, -34.76 ], [ -59.0, -34.76 ], 
[ -59.0, -34.76 ], [ -59.0, -34.76 ], [ -59.0, -34.76 ], [ -59.0, -34.76 ], 
[ -59.0, -34.76 ], [ -59.0, -34.76 ], [ -59.0, -34.76 ], [ -59.0, -34.76 ],
[ -59.0, -34.76 ], [ -59.0, -34.76 ], [ -59.0, -34.76 ], [ -59.0, -34.76 ], 
[ -59.0, -34.76 ], [ -59.0, -34.76 ], [ -59.0, -34.76 ], [ -59.0, -34.76 ], 
[ -59.0, -34.76 ], [ -59.0, -34.76 ], [ -59.01, -34.76 ], [ -59.01, -34.76 ], 
[ -59.01, -34.76 ], [ -59.01, -34.76 ], [ -59.01, -34.76 ], [ -59.01, -34.76 ], 
[ -59.01, -34.76 ], [ -59.01, -34.76 ], [ -59.01, -34.76 ], [ -59.01, -34.76 ], 
[ -59.01, -34.76 ], [ -59.01, -34.76 ], [ -59.01, -34.76 ], [ -59.01, -34.76 ], 
[ -59.01, -34.76 ], [ -59.01, -34.76 ], [ -59.02, -34.76 ], [ -59.02, -34.76 ], 
[ -59.02, -34.76 ], [ -59.02, -34.76 ], [ -59.02, -34.76 ], [ -59.02, -34.76 ],
[ -59.02, -34.76 ], [ -59.02, -34.76 ], [ -59.02, -34.76 ], [ -59.02, -34.76 ], 
[ -59.02, -34.76 ], [ -59.02, -34.76 ], [ -59.02, -34.76 ], [ -59.02, -34.76 ], 
[ -59.02, -34.76 ], [ -59.02, -34.76 ], [ -59.02, -34.76 ], [ -59.02, -34.76 ],
[ -59.02, -34.76 ], [ -59.02, -34.76 ], [ -59.02, -34.76 ], [ -59.02, -34.76 ], 
[ -59.03, -34.76 ], [ -59.03, -34.76 ], [ -59.03, -34.76 ], [ -59.03, -34.76 ], 
[ -59.03, -34.76 ], [ -59.03, -34.76 ], [ -59.03, -34.76 ], [ -59.03, -34.76 ], 
[ -59.03, -34.76 ], [ -59.03, -34.76 ], [ -59.03, -34.76 ], [ -59.03, -34.76 ], 
[ -59.03, -34.76 ], [ -59.03, -34.76 ], [ -59.03, -34.76 ], [ -59.03, -34.76 ],
[ -59.03, -34.76 ], [ -59.03, -34.76 ], [ -59.03, -34.76 ], [ -59.05, -34.75 ], 
[ -59.06, -34.74 ], [ -59.06, -34.74 ], [ -59.06, -34.74 ], [ -59.06, -34.74 ], 
[ -59.07, -34.74 ], [ -59.07, -34.73 ], [ -59.07, -34.73 ], [ -59.07, -34.73 ],
[ -59.08, -34.73 ], [ -59.08, -34.72 ], [ -59.09, -34.72 ], [ -59.09, -34.72 ], 
[ -59.09, -34.72 ], [ -59.09, -34.72 ], [ -59.09, -34.72 ], [ -59.09, -34.72 ], 
[ -59.09, -34.72 ], [ -59.09, -34.72 ], [ -59.09, -34.72 ], [ -59.09, -34.72 ], 
[ -59.09, -34.72 ], [ -59.1, -34.71 ], [ -59.1, -34.7 ], [ -59.1, -34.7 ], 
[ -59.11, -34.7 ], [ -59.11, -34.7 ], [ -59.11, -34.7 ], [ -59.12, -34.69 ], 
[ -59.12, -34.68 ], [ -59.13, -34.67 ], [ -59.13, -34.66 ], [ -59.13, -34.66 ], 
[ -59.13, -34.66 ], [ -59.14, -34.66 ], [ -59.14, -34.66 ], [ -59.13, -34.65 ], 
[ -59.13, -34.65 ], [ -59.12, -34.65 ], [ -59.12, -34.65 ], [ -59.12, -34.65 ], 
[ -59.12, -34.65 ], [ -59.12, -34.65 ], [ -59.11, -34.65 ], [ -59.11, -34.65 ], 
[ -59.12, -34.64 ], [ -59.11, -34.64 ], [ -59.11, -34.64 ], [ -59.11, -34.64 ], 
[ -59.1, -34.64 ], [ -59.1, -34.64 ], [ -59.1, -34.64 ], [ -59.09, -34.63 ], 
[ -59.09, -34.63 ], [ -59.09, -34.63 ], [ -59.09, -34.63 ], [ -59.09, -34.63 ], 
[ -59.09, -34.63 ], [ -59.08, -34.63 ], [ -59.08, -34.63 ], [ -59.07, -34.62 ], 
[ -59.07, -34.62 ], [ -59.06, -34.62 ], [ -59.06, -34.62 ], [ -59.06, -34.62 ], 
[ -59.06, -34.62 ], [ -59.06, -34.61 ], [ -59.06, -34.61 ], [ -59.07, -34.6 ], 
[ -59.07, -34.6 ], [ -59.07, -34.6 ], [ -59.07, -34.6 ], [ -59.06, -34.6 ], 
[ -59.06, -34.6 ], [ -59.06, -34.6 ], [ -59.05, -34.59 ], [ -59.05, -34.59 ], 
[ -59.05, -34.59 ], [ -59.04, -34.59 ], [ -59.04, -34.59 ], [ -59.03, -34.59 ], 
[ -59.03, -34.59 ], [ -59.03, -34.59 ], [ -59.03, -34.59 ], [ -59.03, -34.59 ], 
[ -59.02, -34.59 ], [ -59.02, -34.59 ], [ -59.01, -34.59 ], [ -59.01, -34.59 ], 
[ -59.01, -34.59 ], [ -59.01, -34.59 ], [ -59.0, -34.58 ], [ -59.0, -34.58 ], 
[ -59.0, -34.58 ], [ -59.0, -34.58 ], [ -59.0, -34.58 ], [ -58.99, -34.58 ], 
[ -58.99, -34.58 ], [ -58.99, -34.58 ], [ -58.99, -34.58 ], [ -58.99, -34.58 ], 
[ -58.99, -34.57 ], [ -58.99, -34.57 ], [ -58.98, -34.56 ], [ -58.98, -34.56 ], 
[ -58.99, -34.56 ], [ -58.98, -34.56 ], [ -58.98, -34.56 ], [ -58.97, -34.55 ], 
[ -58.97, -34.55 ], [ -58.97, -34.55 ], [ -58.97, -34.55 ], [ -58.96, -34.55 ], 
[ -58.96, -34.55 ], [ -58.96, -34.55 ], [ -58.95, -34.54 ], [ -58.96, -34.54 ], 
[ -58.96, -34.54 ], [ -58.96, -34.53 ], [ -58.96, -34.53 ], [ -58.95, -34.53 ], 
[ -58.94, -34.52 ], [ -58.93, -34.52 ], [ -58.93, -34.52 ], [ -58.93, -34.52 ], 
[ -58.93, -34.52 ], [ -58.92, -34.53 ], [ -58.91, -34.54 ], [ -58.91, -34.54 ], 
[ -58.9, -34.55 ], [ -58.9, -34.56 ], [ -58.89, -34.58 ], [ -58.89, -34.58 ], 
[ -58.89, -34.58 ], [ -58.89, -34.58 ], [ -58.89, -34.59 ], [ -58.89, -34.59 ], 
[ -58.88, -34.59 ], [ -58.88, -34.59 ], [ -58.88, -34.6 ], [ -58.88, -34.6 ], 
[ -58.87, -34.6 ], [ -58.87, -34.6 ], [ -58.87, -34.6 ], [ -58.87, -34.61 ], 
[ -58.87, -34.61 ], [ -58.87, -34.61 ], [ -58.87, -34.61 ], [ -58.86, -34.62 ], 
[ -58.86, -34.62 ], [ -58.87, -34.62 ], [ -58.87, -34.62 ], [ -58.87, -34.62 ], 
[ -58.88, -34.62 ], [ -58.88, -34.63 ] ] ] ] } } ] }

